COSMOS 2588             
1 64095U 25109A   26068.81179522  .00009169  00000+0  32611-3 0  9998
2 64095  72.9704  73.5401 0005019 308.6780  51.3966 15.29122656 44425
STARLINK-35014          
1 65429U 25192AB  26068.71286009  .00024141  00000+0  82482-3 0  9998
2 65429  53.1599 232.5320 0000979  49.0142 311.0944 15.30189497 29383
